ONEWEB-0641             
1 55805U 23029K   23252.40369660  .00000016  00000+0  87506-5 0  9994
2 55805  87.9206 146.3678 0002238  80.2979 279.8406 13.19723813 25463
ONEWEB-0642             
1 55806U 23029L   23252.47477856  .00000059  00000+0  11392-3 0  9994
2 55806  87.9272 146.3119 0003051  84.4420 275.7060 13.19723634 25460
ONEWEB-0643             
1 55807U 23029M   23252.74787726  .00002354  00000+0  51966-2 0  9995
2 55807  87.9528 131.0583 0001795  48.8135 311.3156 13.27627556 27214
ONEWEB-0644             
1 55808U 23029N   23253.00077480 -.00000070  00000+0 -20763-3 0  9992
2 55808  87.9201 146.2368 0002628  80.1059 280.0371 13.19729692 26228
ONEWEB-0645             
1 55809U 23029P   23253.07264497 -.00000018  00000+0 -76146-4 0  9995
2 55809  87.9272 146.1893 0002324  89.0525 271.0874 13.19723335 26235
ONEWEB-0646             
1 55810U 23029Q   23252.42030488  .00000143  00000+0  32602-3 0  9991
2 55810  87.9181 146.3269 0002259  75.9332 284.2052 13.19727870 25446
ONEWEB-0648             
1 55811U 23029R   23252.94284197  .00000082  00000+0  15392-3 0  9996
2 55811  87.9564 130.9849 0002424  89.5922 270.5493 13.27330220 27240
ONEWEB-0649             
1 55812U 23029S   23252.45897963  .00000056  00000+0  10687-3 0  9997
2 55812  87.9191 146.3342 0002377  84.5151 275.6252 13.19718606 25484
